NORAD_CAT_ID,OBJECT_NAME,OBJECT_TYPE,EPOCH,MEAN_MOTION,ECCENTRICITY,INCLINATION,RA_OF_ASC_NODE,ARG_OF_PERICENTER,MEAN_ANOMALY,BSTAR,MEAN_MOTION_DOT,MEAN_MOTION_DDOT,TLE_LINE0,TLE_LINE1,TLE_LINE2,SEMIMAJOR_AXIS,PERIOD,APOGEE,PERIGEE,DECAYED
53000.0,STARLINK-4194,PAYLOAD,2022-07-24 06:00:00,15.73172892,0.0001789,53.2188,296.9213,41.8279,115.5005,0.00054568,0.00076576,0.0,0 STARLINK-4194,1 53000U 22076Q   22205.25001157  .00076576  00000-0  54568-3 0  9999,2 53000  53.2188 296.9213 0001789  41.8279 115.5005 15.73172892  3123,6727.972,91.535,351.041,348.634,0.0
53000.0,STARLINK-4194,PAYLOAD,2022-07-24 14:00:01,15.73214671,0.0001975,53.2189,295.2742,34.2392,211.9708,-0.00034849,-0.00049278,0.0,0 STARLINK-4194,1 53000U 22076Q   22205.58334491 -.00049278  00000-0 -34849-3 0  9996,2 53000  53.2189 295.2742 0001975  34.2392 211.9708 15.73214671  3181,6727.853,91.532,351.047,348.39,0.0
53000.0,STARLINK-4194,PAYLOAD,2022-07-24 22:00:00,15.73175437,0.0001846,53.2191,293.6237,29.12,306.0209,5.2785e-05,6.786e-05,0.0,0 STARLINK-4194,1 53000U 22076Q   22205.91667824  .00006786  00000-0  52785-4 0  9997,2 53000  53.2191 293.6237 0001846  29.1200 306.0209 15.73175437  1303,6727.965,91.535,351.07199999999995,348.588,0.0
53000.0,STARLINK-4194,PAYLOAD,2022-07-25 06:00:00,15.731748,0.0001816,53.2194,291.9735,34.4767,29.5428,0.00031513,0.0004378999999999,0.0,0 STARLINK-4194,1 53000U 22076Q   22206.25001157  .00043790  00000-0  31513-3 0  9997,2 53000  53.2194 291.9735 0001816  34.4767  29.5428 15.73174800  3286,6727.967,91.535,351.05400000000014,348.61,0.0
53000.0,STARLINK-4194,PAYLOAD,2022-07-25 14:00:01,15.73191688,0.0002089,53.2191,290.3262,29.6392,123.3078,0.00031503,0.00043809,0.0,0 STARLINK-4194,1 53000U 22076Q   22206.58334491  .00043809  00000-0  31503-3 0  9993,2 53000  53.2191 290.3262 0002089  29.6392 123.3078 15.73191688  1302,6727.919,91.534,351.189,348.37800000000016,0.0
53000.0,STARLINK-4194,PAYLOAD,2022-07-25 22:00:00,15.73267263,0.0001904,53.2186,288.6756,27.9397,213.9416,-0.000779,-0.00108866,0.0,0 STARLINK-4194,1 53000U 22076Q   22206.91667824 -.00108866  00000-0 -77900-3 0  9997,2 53000  53.2186 288.6756 0001904  27.9397 213.9416 15.73267263  1300,6727.703,91.529,350.849,348.287,0.0
53000.0,STARLINK-4194,PAYLOAD,2022-07-26 06:00:00,15.73187992,0.0001738,53.2189,287.0256,27.6218,303.2116,0.00026563,0.00036804,0.0,0 STARLINK-4194,1 53000U 22076Q   22207.25001157  .00036804  00000-0  26563-3 0  9995,2 53000  53.2189 287.0256 0001738  27.6218 303.2116 15.73187992  3442,6727.929,91.534,350.964,348.625,0.0
53000.0,STARLINK-4194,PAYLOAD,2022-07-26 14:00:01,15.73194988,0.0002017,53.2189,285.3784,24.1898,35.5731,0.00036522,0.00050938,0.0,0 STARLINK-4194,1 53000U 22076Q   22207.58334491  .00050938  00000-0  36522-3 0  9991,2 53000  53.2189 285.3784 0002017  24.1898  35.5731 15.73194988  1300,6727.909000000002,91.533,351.131,348.417,0.0
53000.0,STARLINK-4194,PAYLOAD,2022-07-26 22:00:00,15.73246161,0.0001973,53.219,283.7276,24.6569,124.0496,-3.3668e-06,-1.095e-05,0.0,0 STARLINK-4194,1 53000U 22076Q   22207.91667824 -.00001095  00000-0 -33668-5 0  9999,2 53000  53.2190 283.7276 0001973  24.6569 124.0496 15.73246161  1303,6727.764,91.53,350.956,348.301,0.0
53000.0,STARLINK-4194,PAYLOAD,2022-07-27 06:00:02,15.73204193,0.0001976,53.2177,282.0696,29.6476,208.0863,9.3784e-06,6.95e-06,0.0,0 STARLINK-4194,1 53000U 22076Q   22208.25002315  .00000695  00000-0  93784-5 0  9993,2 53000  53.2177 282.0696 0001976  29.6476 208.0863 15.73204193  3606,6727.8830000000025,91.533,351.07800000000015,348.4190000000001,0.0
53000.0,STARLINK-4194,PAYLOAD,2022-07-27 14:00:01,15.73205137,0.0002126999999999,53.2177,280.4221,27.9857,298.6157,-1.2015e-05,-2.308e-05,0.0,0 STARLINK-4194,1 53000U 22076Q   22208.58334491 -.00002308  00000-0 -12015-4 0  9994,2 53000  53.2177 280.4221 0002127  27.9857 298.6157 15.73205137  1300,6727.880999999999,91.533,351.177,348.315,0.0
53000.0,STARLINK-4194,PAYLOAD,2022-07-27 22:00:00,15.73218755,0.0002068,53.2184,278.7793,28.3648,27.2695,-0.00024471,-0.00034853,0.0,0 STARLINK-4194,1 53000U 22076Q   22208.91667824 -.00034853  00000-0 -24471-3 0  9998,2 53000  53.2184 278.7793 0002068  28.3648  27.2695 15.73218755  1302,6727.842,91.532,351.098,348.315,0.0
53000.0,STARLINK-4194,PAYLOAD,2022-07-28 00:00:00,15.73182278,0.0002011,53.2184,278.3665,27.1188,140.7602,0.00029507,0.00040963,0.0,0 STARLINK-4194,1 53000U 22076Q   22209.00001157  .00040963  00000-0  29507-3 0  9992,2 53000  53.2184 278.3665 0002011  27.1188 140.7602 15.73182278  3716,6727.946,91.534,351.164,348.458,0.0
53000.0,STARLINK-4194,PAYLOAD,2022-07-28 14:00:01,15.73220929,0.0002228,53.2185,275.4823,23.4511,210.0482,-0.0003055,-0.00043319,0.0,0 STARLINK-4194,1 53000U 22076Q   22209.58334491 -.00043319  00000-0 -30550-3 0  9995,2 53000  53.2185 275.4823 0002228  23.4511 210.0482 15.73220929  1306,6727.8359999999975,91.532,351.199,348.202,0.0
53000.0,STARLINK-4194,PAYLOAD,2022-07-28 22:00:00,15.73184569,0.0002051,53.2186,273.8312,21.4454,301.0018,0.00011354,0.00015333,0.0,0 STARLINK-4194,1 53000U 22076Q   22209.91667824  .00015333  00000-0  11354-3 0  9995,2 53000  53.2186 273.8312 0002051  21.4454 301.0018 15.73184569  1305,6727.939,91.534,351.184,348.4240000000001,0.0
53000.0,STARLINK-4194,PAYLOAD,2022-07-29 00:00:00,15.73164882,0.0001998,53.2186,273.4184,21.4511,53.2311,0.00047799,0.000669,0.0,0 STARLINK-4194,1 53000U 22076Q   22210.00001157  .00066900  00000-0  47799-3 0  9996,2 53000  53.2186 273.4184 0001998  21.4511  53.2311 15.73164882  3873,6727.995,91.535,351.205,348.516,0.0
53000.0,STARLINK-4194,PAYLOAD,2022-07-29 14:00:01,15.73205163,0.0002308,53.2184,270.534,17.9462,122.3556,-0.00027887,-0.00039589,0.0,0 STARLINK-4194,1 53000U 22076Q   22210.58334491 -.00039589  00000-0 -27887-3 0  9990,2 53000  53.2184 270.5340 0002308  17.9462 122.3556 15.73205163  1307,6727.88,91.533,351.298,348.1930000000001,0.0
53000.0,STARLINK-4194,PAYLOAD,2022-07-29 22:00:00,15.73168012,0.0002091,53.218,268.8829,16.5251,212.6996,0.00013325,0.00018096,0.0,0 STARLINK-4194,1 53000U 22076Q   22210.91667824  .00018096  00000-0  13325-3 0  9996,2 53000  53.2180 268.8829 0002091  16.5251 212.6996 15.73168012  1307,6727.986,91.535,351.2580000000001,348.445,0.0
53000.0,STARLINK-4194,PAYLOAD,2022-07-30 06:00:00,15.73203382,0.0002054,53.218,267.2337,18.3429,299.7701,1.4164e-05,1.367e-05,0.0,0 STARLINK-4194,1 53000U 22076Q   22211.25001157  .00001367  00000-0  14164-4 0  9991,2 53000  53.2180 267.2337 0002054  18.3429 299.7701 15.73203382  4077,6727.886,91.533,351.13199999999995,348.369,0.0
53000.0,STARLINK-4194,PAYLOAD,2022-07-30 14:00:01,15.73176076,0.0002326,53.2179,265.5861,16.8609,30.1817,0.0005011,0.00070228,0.0,0 STARLINK-4194,1 53000U 22076Q   22211.58334491  .00070228  00000-0  50110-3 0  9999,2 53000  53.2179 265.5861 0002326  16.8609  30.1817 15.73176076  1300,6727.9630000000025,91.535,351.39300000000014,348.26300000000015,0.0
53000.0,STARLINK-4194,PAYLOAD,2022-07-30 22:00:00,15.73215897,0.0002185,53.2182,263.9346,18.5529,117.4238,0.0001544,0.00021118,0.0,0 STARLINK-4194,1 53000U 22076Q   22211.91667824  .00021118  00000-0  15440-3 0  9996,2 53000  53.2182 263.9346 0002185  18.5529 117.4238 15.73215897  1308,6727.85,91.532,351.185,348.245,0.0
53000.0,STARLINK-4194,PAYLOAD,2022-07-31 06:00:02,15.7324723,0.0002313,53.2183,262.2853,24.8307,200.1611,-0.0006054999999999,-0.0008493,0.0,0 STARLINK-4194,1 53000U 22076Q   22212.25002315 -.00084930  00000-0 -60550-3 0  9997,2 53000  53.2183 262.2853 0002313  24.8307 200.1611 15.73247230  4237,6727.761,91.53,351.182,348.069,0.0
53000.0,STARLINK-4194,PAYLOAD,2022-07-31 14:00:01,15.73166208,0.0002621,53.218,260.6375,24.5137,289.3658,0.00046627,0.00065239,0.0,0 STARLINK-4194,1 53000U 22076Q   22212.58334491  .00065239  00000-0  46627-3 0  9994,2 53000  53.2180 260.6375 0002621  24.5137 289.3658 15.73166208  1305,6727.9919999999975,91.535,351.62,348.093,0.0
53000.0,STARLINK-4194,PAYLOAD,2022-07-31 22:00:00,15.73193476,0.000236,53.2178,258.986,26.9504,15.8544,0.00030835,0.00042866,0.0,0 STARLINK-4194,1 53000U 22076Q   22212.91667824  .00042866  00000-0  30835-3 0  9995,2 53000  53.2178 258.9860 0002360  26.9504  15.8544 15.73193476  4334,6727.9140000000025,91.534,351.367,348.191,0.0
53000.0,STARLINK-4194,PAYLOAD,2022-08-01 14:00:01,15.73207211,0.0002569999999999,53.2177,255.689,21.8083,198.9172,3.7385e-05,4.63e-05,0.0,0 STARLINK-4194,1 53000U 22076Q   22213.58334491  .00004630  00000-0  37385-4 0  9995,2 53000  53.2177 255.6890 0002570  21.8083 198.9172 15.73207211  4444,6727.875,91.533,351.469,348.011,0.0
53000.0,STARLINK-4194,PAYLOAD,2022-08-01 22:00:00,15.73180269,0.0002355,53.2181,254.0374,23.1033,286.5609,0.00035561,0.00049543,0.0,0 STARLINK-4194,1 53000U 22076Q   22213.91667824  .00049543  00000-0  35561-3 0  9996,2 53000  53.2181 254.0374 0002355  23.1033 286.5609 15.73180269  1304,6727.951,91.534,351.401,348.232,0.0
53000.0,STARLINK-4194,PAYLOAD,2022-08-02 14:00:01,15.73179427,0.0002614,53.2181,250.7402,18.994,108.5651,0.00015108,0.00020617,0.0,0 STARLINK-4194,1 53000U 22076Q   22214.58334491  .00020617  00000-0  15108-3 0  9997,2 53000  53.2181 250.7402 0002614  18.9940 108.5651 15.73179427  1300,6727.954000000002,91.534,351.57800000000015,348.06,0.0
53000.0,STARLINK-4194,PAYLOAD,2022-08-03 14:00:01,15.73212909,0.0002593,53.218,245.7919,15.677,18.6805,-0.00021725,-0.00031021,0.0,0 STARLINK-4194,1 53000U 22076Q   22215.58334491 -.00031021  00000-0 -21725-3 0  9993,2 53000  53.2180 245.7919 0002593  15.6770  18.6805 15.73212909  1302,6727.858,91.532,351.468,347.97900000000016,0.0
53000.0,STARLINK-4194,PAYLOAD,2022-08-03 22:00:01,15.73162892,0.0002336999999999,53.2185,244.1403,15.7299,107.634,0.00048319,0.00067636,0.0,0 STARLINK-4194,1 53000U 22076Q   22215.91668981  .00067636  00000-0  48319-3 0  9991,2 53000  53.2185 244.1403 0002337  15.7299 107.6340 15.73162892  4807,6728.001,91.535,351.43800000000016,348.2940000000001,0.0
